ONEWEB-0210             
1 48787U 21045W   25079.24191897 -.00000005  00000+0 -46838-4 0  9999
2 48787  87.9131 349.6087 0002572  78.5987 281.5433 13.15546077184639
ONEWEB-0214             
1 48788U 21045X   25079.25143553  .00000107  00000+0  25096-3 0  9990
2 48788  87.9129 349.5960 0002325  83.5093 276.6302 13.15547578184600
ONEWEB-0221             
1 48789U 21045Y   25079.25778450  .00000174  00000+0  42918-3 0  9997
2 48789  87.9131 349.6198 0001915  72.4789 287.6551 13.15548753184694
ONEWEB-0213             
1 48790U 21045Z   25079.24667225  .00000099  00000+0  22805-3 0  9994
2 48790  87.9131 349.6312 0002101  74.6117 285.5245 13.15551369184752
ONEWEB-0212             
1 48791U 21045AA  25079.29975959  .00000007  00000+0 -16351-4 0  9996
2 48791  87.9135 349.6084 0001775  76.4414 283.6913 13.15551551184753
ONEWEB-0227             
1 48792U 21045AB  25079.29896450 -.00000024  00000+0 -96799-4 0  9999
2 48792  87.9134 349.6214 0001928  72.5417 287.5924 13.15547208184702
ONEWEB-0226             
1 48793U 21045AC  25079.29264117  .00000032  00000+0  50557-4 0  9998
2 48793  87.9133 349.6276 0002236  76.9122 283.2258 13.15549498184676
ONEWEB-0224             
1 48794U 21045AD  25079.25617513  .00000181  00000+0  44678-3 0  9998
2 48794  87.9134 349.6674 0001787  45.1198 315.0077 13.15551388184596
